[
  {
    "COMMENT": "GENERATED VIA SPACETRACK.ORG API",
    "ORIGINATOR": "18 SPCS",
    "NORAD_CAT_ID": "43682",
    "OBJECT_NAME": "H-2A R/B",
    "OBJECT_TYPE": "ROCKET BODY",
    "CLASSIFICATION_TYPE": "U",
    "INTLDES": "18084L",
    "EPOCH": "2023-06-12 18:51:24",
    "EPOCH_MICROSECONDS": "121440",
    "MEAN_MOTION": "15.08493154",
    "ECCENTRICITY": "0.0051698",
    "INCLINATION": "98.8945",
    "RA_OF_ASC_NODE": "187.2205",
    "ARG_OF_PERICENTER": "156.8771",
    "MEAN_ANOMALY": "203.4797",
    "EPHEMERIS_TYPE": "0",
    "ELEMENT_SET_NO": "999",
    "REV_AT_EPOCH": "25355",
    "BSTAR": "0.00033732",
    "MEAN_MOTION_DOT": "0.0000534",
    "MEAN_MOTION_DDOT": "0",
    "FILE": "3931401",
    "TLE_LINE0": "0 H-2A R/B",
    "TLE_LINE1": "1 43682U 18084L   23163.78569585  .00005340  00000-0  33732-3 0  9995",
    "TLE_LINE2": "2 43682  98.8945 187.2205 0051698 156.8771 203.4797 15.08493154253559",
    "OBJECT_ID": "2018-084L",
    "OBJECT_NUMBER": "43682",
    "SEMIMAJOR_AXIS": "6918.941",
    "PERIOD": "95.459",
    "APOGEE": "576.575",
    "PERIGEE": "505.036",
    "DECAYED": "0"
  },
  {
    "COMMENT": "GENERATED VIA SPACETRACK.ORG API",
    "ORIGINATOR": "18 SPCS",
    "NORAD_CAT_ID": "43682",
    "OBJECT_NAME": "H-2A R/B",
    "OBJECT_TYPE": "ROCKET BODY",
    "CLASSIFICATION_TYPE": "U",
    "INTLDES": "18084L",
    "EPOCH": "2023-06-12 20:26:55",
    "EPOCH_MICROSECONDS": "194144",
    "MEAN_MOTION": "15.08494693",
    "ECCENTRICITY": "0.0051704",
    "INCLINATION": "98.8945",
    "RA_OF_ASC_NODE": "187.2973",
    "ARG_OF_PERICENTER": "156.6577",
    "MEAN_ANOMALY": "203.7011",
    "EPHEMERIS_TYPE": "0",
    "ELEMENT_SET_NO": "999",
    "REV_AT_EPOCH": "25356",
    "BSTAR": "0.00035975",
    "MEAN_MOTION_DOT": "0.00005701",
    "MEAN_MOTION_DDOT": "0",
    "FILE": "3931605",
    "TLE_LINE0": "0 H-2A R/B",
    "TLE_LINE1": "1 43682U 18084L   23163.85202771  .00005701  00000-0  35975-3 0  9996",
    "TLE_LINE2": "2 43682  98.8945 187.2973 0051704 156.6577 203.7011 15.08494693253563",
    "OBJECT_ID": "2018-084L",
    "OBJECT_NUMBER": "43682",
    "SEMIMAJOR_AXIS": "6918.936",
    "PERIOD": "95.459",
    "APOGEE": "576.575",
    "PERIGEE": "505.027",
    "DECAYED": "0"
  },
  {
    "COMMENT": "GENERATED VIA SPACETRACK.ORG API",
    "ORIGINATOR": "18 SPCS",
    "NORAD_CAT_ID": "43682",
    "OBJECT_NAME": "H-2A R/B",
    "OBJECT_TYPE": "ROCKET BODY",
    "CLASSIFICATION_TYPE": "U",
    "INTLDES": "18084L",
    "EPOCH": "2023-06-13 01:13:28",
    "EPOCH_MICROSECONDS": "425216",
    "MEAN_MOTION": "15.08496893",
    "ECCENTRICITY": "0.0051717",
    "INCLINATION": "98.8944",
    "RA_OF_ASC_NODE": "187.5276",
    "ARG_OF_PERICENTER": "156.0167",
    "MEAN_ANOMALY": "204.3483",
    "EPHEMERIS_TYPE": "0",
    "ELEMENT_SET_NO": "999",
    "REV_AT_EPOCH": "25359",
    "BSTAR": "0.00035716",
    "MEAN_MOTION_DOT": "0.0000566",
    "MEAN_MOTION_DDOT": "0",
    "FILE": "3932134",
    "TLE_LINE0": "0 H-2A R/B",
    "TLE_LINE1": "1 43682U 18084L   23164.05102344  .00005660  00000-0  35716-3 0  9991",
    "TLE_LINE2": "2 43682  98.8944 187.5276 0051717 156.0167 204.3483 15.08496893253591",
    "OBJECT_ID": "2018-084L",
    "OBJECT_NUMBER": "43682",
    "SEMIMAJOR_AXIS": "6918.929",
    "PERIOD": "95.459",
    "APOGEE": "576.577",
    "PERIGEE": "505.012",
    "DECAYED": "0"
  },
  {
    "COMMENT": "GENERATED VIA SPACETRACK.ORG API",
    "ORIGINATOR": "18 SPCS",
    "NORAD_CAT_ID": "43682",
    "OBJECT_NAME": "H-2A R/B",
    "OBJECT_TYPE": "ROCKET BODY",
    "CLASSIFICATION_TYPE": "U",
    "INTLDES": "18084L",
    "EPOCH": "2023-06-13 20:19:41",
    "EPOCH_MICROSECONDS": "104128",
    "MEAN_MOTION": "15.08503995",
    "ECCENTRICITY": "0.0051769",
    "INCLINATION": "98.8941",
    "RA_OF_ASC_NODE": "188.4487",
    "ARG_OF_PERICENTER": "153.4817",
    "MEAN_ANOMALY": "206.9073",
    "EPHEMERIS_TYPE": "0",
    "ELEMENT_SET_NO": "999",
    "REV_AT_EPOCH": "25371",
    "BSTAR": "0.00031661",
    "MEAN_MOTION_DOT": "0.00005008",
    "MEAN_MOTION_DDOT": "0",
    "FILE": "3932371",
    "TLE_LINE0": "0 H-2A R/B",
    "TLE_LINE1": "1 43682U 18084L   23164.84700352  .00005008  00000-0  31661-3 0  9992",
    "TLE_LINE2": "2 43682  98.8941 188.4487 0051769 153.4817 206.9073 15.08503995253711",
    "OBJECT_ID": "2018-084L",
    "OBJECT_NUMBER": "43682",
    "SEMIMAJOR_AXIS": "6918.908",
    "PERIOD": "95.459",
    "APOGEE": "576.591",
    "PERIGEE": "504.954",
    "DECAYED": "0"
  },
  {
    "COMMENT": "GENERATED VIA SPACETRACK.ORG API",
    "ORIGINATOR": "18 SPCS",
    "NORAD_CAT_ID": "43682",
    "OBJECT_NAME": "H-2A R/B",
    "OBJECT_TYPE": "ROCKET BODY",
    "CLASSIFICATION_TYPE": "U",
    "INTLDES": "18084L",
    "EPOCH": "2023-06-14 01:06:14",
    "EPOCH_MICROSECONDS": "225472",
    "MEAN_MOTION": "15.08505884",
    "ECCENTRICITY": "0.0051773",
    "INCLINATION": "98.8941",
    "RA_OF_ASC_NODE": "188.679",
    "ARG_OF_PERICENTER": "152.8371",
    "MEAN_ANOMALY": "207.5579",
    "EPHEMERIS_TYPE": "0",
    "ELEMENT_SET_NO": "999",
    "REV_AT_EPOCH": "25374",
    "BSTAR": "0.00030849",
    "MEAN_MOTION_DOT": "0.00004878",
    "MEAN_MOTION_DDOT": "0",
    "FILE": "3932463",
    "TLE_LINE0": "0 H-2A R/B",
    "TLE_LINE1": "1 43682U 18084L   23165.04599798  .00004878  00000-0  30849-3 0  9996",
    "TLE_LINE2": "2 43682  98.8941 188.6790 0051773 152.8371 207.5579 15.08505884253743",
    "OBJECT_ID": "2018-084L",
    "OBJECT_NUMBER": "43682",
    "SEMIMAJOR_AXIS": "6918.902",
    "PERIOD": "95.459",
    "APOGEE": "576.588",
    "PERIGEE": "504.946",
    "DECAYED": "0"
  },
  {
    "COMMENT": "GENERATED VIA SPACETRACK.ORG API",
    "ORIGINATOR": "18 SPCS",
    "NORAD_CAT_ID": "43682",
    "OBJECT_NAME": "H-2A R/B",
    "OBJECT_TYPE": "ROCKET BODY",
    "CLASSIFICATION_TYPE": "U",
    "INTLDES": "18084L",
    "EPOCH": "2023-06-14 13:50:22",
    "EPOCH_MICROSECONDS": "444224",
    "MEAN_MOTION": "15.08510022",
    "ECCENTRICITY": "0.0051783",
    "INCLINATION": "98.8939",
    "RA_OF_ASC_NODE": "189.2931",
    "ARG_OF_PERICENTER": "151.1403",
    "MEAN_ANOMALY": "209.2703",
    "EPHEMERIS_TYPE": "0",
    "ELEMENT_SET_NO": "999",
    "REV_AT_EPOCH": "25382",
    "BSTAR": "0.00027959",
    "MEAN_MOTION_DOT": "0.00004413",
    "MEAN_MOTION_DDOT": "0",
    "FILE": "3932965",
    "TLE_LINE0": "0 H-2A R/B",
    "TLE_LINE1": "1 43682U 18084L   23165.57664866  .00004413  00000-0  27959-3 0  9996",
    "TLE_LINE2": "2 43682  98.8939 189.2931 0051783 151.1403 209.2703 15.08510022253820",
    "OBJECT_ID": "2018-084L",
    "OBJECT_NUMBER": "43682",
    "SEMIMAJOR_AXIS": "6918.889",
    "PERIOD": "95.458",
    "APOGEE": "576.582",
    "PERIGEE": "504.926",
    "DECAYED": "0"
  },
  {
    "COMMENT": "GENERATED VIA SPACETRACK.ORG API",
    "ORIGINATOR": "18 SPCS",
    "NORAD_CAT_ID": "43682",
    "OBJECT_NAME": "H-2A R/B",
    "OBJECT_TYPE": "ROCKET BODY",
    "CLASSIFICATION_TYPE": "U",
    "INTLDES": "18084L",
    "EPOCH": "2023-06-14 20:12:26",
    "EPOCH_MICROSECONDS": "483616",
    "MEAN_MOTION": "15.08512651",
    "ECCENTRICITY": "0.0051779",
    "INCLINATION": "98.8937",
    "RA_OF_ASC_NODE": "189.6001",
    "ARG_OF_PERICENTER": "150.2881",
    "MEAN_ANOMALY": "210.1302",
    "EPHEMERIS_TYPE": "0",
    "ELEMENT_SET_NO": "999",
    "REV_AT_EPOCH": "25386",
    "BSTAR": "0.00028245",
    "MEAN_MOTION_DOT": "0.00004459",
    "MEAN_MOTION_DDOT": "0",
    "FILE": "3933215",
    "TLE_LINE0": "0 H-2A R/B",
    "TLE_LINE1": "1 43682U 18084L   23165.84197319  .00004459  00000-0  28245-3 0  9999",
    "TLE_LINE2": "2 43682  98.8937 189.6001 0051779 150.2881 210.1302 15.08512651253865",
    "OBJECT_ID": "2018-084L",
    "OBJECT_NUMBER": "43682",
    "SEMIMAJOR_AXIS": "6918.881",
    "PERIOD": "95.458",
    "APOGEE": "576.571",
    "PERIGEE": "504.921",
    "DECAYED": "0"
  },
  {
    "COMMENT": "GENERATED VIA SPACETRACK.ORG API",
    "ORIGINATOR": "18 SPCS",
    "NORAD_CAT_ID": "43682",
    "OBJECT_NAME": "H-2A R/B",
    "OBJECT_TYPE": "ROCKET BODY",
    "CLASSIFICATION_TYPE": "U",
    "INTLDES": "18084L",
    "EPOCH": "2023-06-15 02:34:30",
    "EPOCH_MICROSECONDS": "491040",
    "MEAN_MOTION": "15.08515233",
    "ECCENTRICITY": "0.0051776",
    "INCLINATION": "98.8936",
    "RA_OF_ASC_NODE": "189.9071",
    "ARG_OF_PERICENTER": "149.4499",
    "MEAN_ANOMALY": "210.9759",
    "EPHEMERIS_TYPE": "0",
    "ELEMENT_SET_NO": "999",
    "REV_AT_EPOCH": "25390",
    "BSTAR": "0.00028111",
    "MEAN_MOTION_DOT": "0.00004438",
    "MEAN_MOTION_DDOT": "0",
    "FILE": "3933328",
    "TLE_LINE0": "0 H-2A R/B",
    "TLE_LINE1": "1 43682U 18084L   23166.10729735  .00004438  00000-0  28111-3 0  9991",
    "TLE_LINE2": "2 43682  98.8936 189.9071 0051776 149.4499 210.9759 15.08515233253904",
    "OBJECT_ID": "2018-084L",
    "OBJECT_NUMBER": "43682",
    "SEMIMAJOR_AXIS": "6918.873",
    "PERIOD": "95.458",
    "APOGEE": "576.561",
    "PERIGEE": "504.915",
    "DECAYED": "0"
  }
]